{"type": "FeatureCollection", "features": [{"type": "Feature", "properties": {"name": "Tibor's Kosher Meats", "kind": "butcher", "chain": 0, "address": "2185 South Green Road, Cleveland", "website": null, "hours": null}, "geometry": {"type": "Point", "coordinates": [-81.5179498, 41.5001308]}}, {"type": "Feature", "properties": {"name": "Whitaker Meats", "kind": "butcher", "chain": 0, "address": null, "website": null, "hours": null}, "geometry": {"type": "Point", "coordinates": [-81.7030383, 41.4846276]}}, {"type": "Feature", "properties": {"name": "samosky's home bakery", "kind": "bakery", "chain": 0, "address": "6379 Pearl Road, Parma Heights", "website": null, "hours": null}, "geometry": {"type": "Point", "coordinates": [-81.7667685, 41.3866704]}}, {"type": "Feature", "properties": {"name": "Michael's Bakery & Deli", "kind": "bakery", "chain": 0, "address": "4478 Broadview Road, Cleveland", "website": null, "hours": null}, "geometry": {"type": "Point", "coordinates": [-81.6973365, 41.4339905]}}, {"type": "Feature", "properties": {"name": "Kate's Fish", "kind": "fishmonger", "chain": 0, "address": null, "website": null, "hours": null}, "geometry": {"type": "Point", "coordinates": [-81.7029675, 41.4848498]}}, {"type": "Feature", "properties": {"name": "Jack Frost Donuts", "kind": "bakery", "chain": 0, "address": "4960 Pearl Road, Cleveland", "website": null, "hours": null}, "geometry": {"type": "Point", "coordinates": [-81.7235571, 41.4230914]}}, {"type": "Feature", "properties": {"name": "Nothing Bundt Cakes", "kind": "patisserie", "chain": 1, "address": "3900 Medina Road, Fairlawn", "website": null, "hours": null}, "geometry": {"type": "Point", "coordinates": [-81.6387767, 41.1346838]}}, {"type": "Feature", "properties": {"name": "R & K Sausage", "kind": "butcher", "chain": 0, "address": null, "website": null, "hours": null}, "geometry": {"type": "Point", "coordinates": [-81.6290728, 41.4484883]}}, {"type": "Feature", "properties": {"name": "Vera's", "kind": "bakery", "chain": 0, "address": null, "website": null, "hours": null}, "geometry": {"type": "Point", "coordinates": [-81.703047, 41.4845739]}}, {"type": "Feature", "properties": {"name": "Insomnia Cookies", "kind": "patisserie", "chain": 1, "address": "112 South Water Street, Kent", "website": null, "hours": null}, "geometry": {"type": "Point", "coordinates": [-81.3579812, 41.1519944]}}, {"type": "Feature", "properties": {"name": "Pandora's Cupcakes", "kind": "bakery", "chain": 0, "address": null, "website": null, "hours": null}, "geometry": {"type": "Point", "coordinates": [-81.6388382, 41.1337635]}}, {"type": "Feature", "properties": {"name": "The Bakery at Hattie's Cafe", "kind": "bakery", "chain": 0, "address": null, "website": null, "hours": null}, "geometry": {"type": "Point", "coordinates": [-81.5197563, 41.0795669]}}, {"type": "Feature", "properties": {"name": "Ianaro's Bakery and Imports", "kind": "bakery", "chain": 0, "address": "11858 Mayfield Road, Chardon", "website": null, "hours": null}, "geometry": {"type": "Point", "coordinates": [-81.2145474, 41.5300569]}}, {"type": "Feature", "properties": {"name": "Catanese Classic Seafood", "kind": "fishmonger", "chain": 0, "address": "1600 Merwin Avenue, Cleveland", "website": null, "hours": null}, "geometry": {"type": "Point", "coordinates": [-81.7025789, 41.4940562]}}, {"type": "Feature", "properties": {"name": "Crumbl Cookies", "kind": "patisserie", "chain": 1, "address": null, "website": null, "hours": null}, "geometry": {"type": "Point", "coordinates": [-81.437694, 41.5264019]}}, {"type": "Feature", "properties": {"name": "Insomnia Cookies", "kind": "patisserie", "chain": 1, "address": "11308 Euclid Avenue, Cleveland", "website": null, "hours": null}, "geometry": {"type": "Point", "coordinates": [-81.6058665, 41.5082642]}}, {"type": "Feature", "properties": {"name": "Marchant Manor Cheese", "kind": "fromagerie", "chain": 0, "address": "2211 Lee Road, Cleveland Heights", "website": null, "hours": null}, "geometry": {"type": "Point", "coordinates": [-81.5651334, 41.4996858]}}, {"type": "Feature", "properties": {"name": "Mister Brisket", "kind": "butcher", "chain": 0, "address": "2156 South Taylor Road, Cleveland Heights", "website": "https://www.misterbrisket.com/", "hours": null}, "geometry": {"type": "Point", "coordinates": [-81.5562628, 41.5010454]}}, {"type": "Feature", "properties": {"name": "Michael's Bakery", "kind": "bakery", "chain": 0, "address": null, "website": null, "hours": null}, "geometry": {"type": "Point", "coordinates": [-81.7673535, 40.8351072]}}, {"type": "Feature", "properties": {"name": "Kolo's Bakery", "kind": "bakery", "chain": 0, "address": null, "website": null, "hours": null}, "geometry": {"type": "Point", "coordinates": [-81.7106171, 41.4148741]}}, {"type": "Feature", "properties": {"name": "Jaworski's Meats", "kind": "butcher", "chain": 0, "address": null, "website": null, "hours": null}, "geometry": {"type": "Point", "coordinates": [-81.8138137, 41.3599056]}}, {"type": "Feature", "properties": {"name": "K & K Market", "kind": "butcher", "chain": 0, "address": null, "website": null, "hours": null}, "geometry": {"type": "Point", "coordinates": [-81.8030382, 41.4625071]}}, {"type": "Feature", "properties": {"name": "Strasburg Meats", "kind": "butcher", "chain": 0, "address": null, "website": null, "hours": null}, "geometry": {"type": "Point", "coordinates": [-81.4230134, 40.8134855]}}, {"type": "Feature", "properties": {"name": "Pinzone's Meats", "kind": "butcher", "chain": 0, "address": null, "website": null, "hours": null}, "geometry": {"type": "Point", "coordinates": [-81.6894419, 41.3988168]}}, {"type": "Feature", "properties": {"name": "Sweet Surprises", "kind": "bakery", "chain": 0, "address": "732 Richmond Road", "website": "http://sweetsurprisesshop.com", "hours": "Mo-We,Fr 10:00-18:00; Th 10:00-20:00; Sa 10:00-16:00"}, "geometry": {"type": "Point", "coordinates": [-81.4976283, 41.5407208]}}, {"type": "Feature", "properties": {"name": "Farkas Pastry Shoppe", "kind": "patisserie", "chain": 0, "address": null, "website": null, "hours": null}, "geometry": {"type": "Point", "coordinates": [-81.7049823, 41.4835922]}}, {"type": "Feature", "properties": {"name": "Wojtila's Bakery", "kind": "bakery", "chain": 0, "address": null, "website": null, "hours": null}, "geometry": {"type": "Point", "coordinates": [-81.526561, 41.5896053]}}, {"type": "Feature", "properties": {"name": "Elmwood Bakery", "kind": "bakery", "chain": 0, "address": null, "website": null, "hours": null}, "geometry": {"type": "Point", "coordinates": [-81.8028709, 41.4774593]}}, {"type": "Feature", "properties": {"name": "Tommy's Pastries", "kind": "patisserie", "chain": 0, "address": null, "website": null, "hours": null}, "geometry": {"type": "Point", "coordinates": [-81.7922629, 41.4769846]}}, {"type": "Feature", "properties": {"name": "I Love Pies", "kind": "bakery", "chain": 0, "address": null, "website": null, "hours": null}, "geometry": {"type": "Point", "coordinates": [-81.4388848, 41.6075015]}}, {"type": "Feature", "properties": {"name": "Awaken Bake Company", "kind": "bakery", "chain": 0, "address": "South Main Street, Hudson", "website": null, "hours": "We-Fr 07:00-20:00; Sa 08:00-20:00; Su 08:00-17:00"}, "geometry": {"type": "Point", "coordinates": [-81.4399886, 41.2365556]}}, {"type": "Feature", "properties": {"name": "Assad's Bakery", "kind": "bakery", "chain": 0, "address": null, "website": null, "hours": null}, "geometry": {"type": "Point", "coordinates": [-81.7771405, 41.4590641]}}, {"type": "Feature", "properties": {"name": "Insomnia Cookies", "kind": "patisserie", "chain": 1, "address": "1224 West 6th Street, Cleveland", "website": null, "hours": null}, "geometry": {"type": "Point", "coordinates": [-81.6999237, 41.5008776]}}, {"type": "Feature", "properties": {"name": "K & K Meat Shoppe", "kind": "butcher", "chain": 0, "address": null, "website": null, "hours": null}, "geometry": {"type": "Point", "coordinates": [-81.5757542, 41.3914747]}}, {"type": "Feature", "properties": {"name": "The Breadsmith", "kind": "bakery", "chain": 0, "address": null, "website": null, "hours": "Tu-Fr 08:00-18:00; Sa 08:00-17:00; Su 08:00-16:00"}, "geometry": {"type": "Point", "coordinates": [-81.8229281, 41.4840212]}}, {"type": "Feature", "properties": {"name": "KB Confectionary", "kind": "bakery", "chain": 0, "address": "13519 Detroit Avenue, Lakewood", "website": null, "hours": "Tu-Fr 10:00-18:00; Sa 09:00-16:00"}, "geometry": {"type": "Point", "coordinates": [-81.7852226, 41.4849737]}}, {"type": "Feature", "properties": {"name": "Corbo's Bakery", "kind": "bakery", "chain": 0, "address": null, "website": null, "hours": null}, "geometry": {"type": "Point", "coordinates": [-81.5974908, 41.5085482]}}, {"type": "Feature", "properties": {"name": "Gigi's Cupcakes", "kind": "patisserie", "chain": 1, "address": "20649 Center Ridge Road, Fairview Park", "website": null, "hours": null}, "geometry": {"type": "Point", "coordinates": [-81.8496221, 41.462309]}}, {"type": "Feature", "properties": {"name": "Nothing Bundt Cakes", "kind": "patisserie", "chain": 1, "address": "35925 Detroit Road, Avon", "website": null, "hours": null}, "geometry": {"type": "Point", "coordinates": [-82.0185844, 41.4588386]}}, {"type": "Feature", "properties": {"name": "Nothing Bundt Cakes", "kind": "patisserie", "chain": 1, "address": "13433 Pearl Road, Strongsville", "website": null, "hours": null}, "geometry": {"type": "Point", "coordinates": [-81.8348512, 41.3162068]}}, {"type": "Feature", "properties": {"name": "Little Devil Cupcakery", "kind": "bakery", "chain": 0, "address": "103 Milan Avenue, Amherst", "website": "https://www.littledevilcupcakery.com", "hours": "We,Th 11:00-17:00; Fr 11:00-18:00; Sa 11:00-15:00"}, "geometry": {"type": "Point", "coordinates": [-82.2270135, 41.3986729]}}, {"type": "Feature", "properties": {"name": "Ellet Meat Market", "kind": "butcher", "chain": 0, "address": null, "website": null, "hours": null}, "geometry": {"type": "Point", "coordinates": [-81.4370956, 41.0437247]}}, {"type": "Feature", "properties": {"name": "Corbo's", "kind": "bakery", "chain": 0, "address": "1603 Euclid Avenue", "website": null, "hours": "Tu,We 08:00-15:00; Th,Fr 08:00-19:30; Sa 00:00-19:30"}, "geometry": {"type": "Point", "coordinates": [-81.6805487, 41.5012244]}}, {"type": "Feature", "properties": {"name": "Colassal Cupcakes", "kind": "bakery", "chain": 0, "address": null, "website": null, "hours": null}, "geometry": {"type": "Point", "coordinates": [-81.9524244, 41.4613745]}}, {"type": "Feature", "properties": {"name": "Guaterrique\u00f1a Bakery", "kind": "bakery", "chain": 0, "address": "4239 Fulton Road, Cleveland", "website": null, "hours": null}, "geometry": {"type": "Point", "coordinates": [-81.7228961, 41.441339]}}, {"type": "Feature", "properties": {"name": "Rito's", "kind": "bakery", "chain": 0, "address": null, "website": null, "hours": null}, "geometry": {"type": "Point", "coordinates": [-81.8419287, 41.2228807]}}, {"type": "Feature", "properties": {"name": "Breads and Beyond Bakery", "kind": "bakery", "chain": 0, "address": null, "website": null, "hours": null}, "geometry": {"type": "Point", "coordinates": [-81.7108952, 41.4098292]}}, {"type": "Feature", "properties": {"name": "Goldie's", "kind": "bakery", "chain": 0, "address": "5211 Mayfield Road, Lyndhurst", "website": null, "hours": "Mo-Th 06:00-20:00; Fr,Sa 06:00-22:00; Su 06:00-18:00"}, "geometry": {"type": "Point", "coordinates": [-81.4918293, 41.5202114]}}, {"type": "Feature", "properties": {"name": "Confectionary Cupboard", "kind": "patisserie", "chain": 0, "address": "7300 Center Street, Mentor", "website": "https://confectionarycupboard.com/", "hours": null}, "geometry": {"type": "Point", "coordinates": [-81.3401174, 41.6720028]}}, {"type": "Feature", "properties": {"name": "Buettner's Bakery", "kind": "bakery", "chain": 0, "address": "702 East 185th Street, Cleveland", "website": null, "hours": null}, "geometry": {"type": "Point", "coordinates": [-81.5500645, 41.5884228]}}, {"type": "Feature", "properties": {"name": "Avenue Fine Pastries", "kind": "patisserie", "chain": 0, "address": null, "website": null, "hours": null}, "geometry": {"type": "Point", "coordinates": [-81.8273834, 41.4818252]}}, {"type": "Feature", "properties": {"name": "Insomnia Cookies", "kind": "patisserie", "chain": 1, "address": "18508 Detroit Avenue, Lakewood", "website": null, "hours": null}, "geometry": {"type": "Point", "coordinates": [-81.8270221, 41.4821777]}}, {"type": "Feature", "properties": {"name": "The Farmer\u2019s Rail", "kind": "butcher", "chain": 0, "address": "1572 North Cleveland Massillon Road, Akron", "website": null, "hours": null}, "geometry": {"type": "Point", "coordinates": [-81.6368778, 41.1784175]}}, {"type": "Feature", "properties": {"name": "Koko Bakery", "kind": "patisserie", "chain": 0, "address": "3710 Payne Avenue, Cleveland", "website": null, "hours": null}, "geometry": {"type": "Point", "coordinates": [-81.6624324, 41.5093204]}}, {"type": "Feature", "properties": {"name": "Acme Farm Market", "kind": "market", "chain": 0, "address": null, "website": null, "hours": "Tu-Th 09:30-18:00; Fr 09:30-18:30; Sa 09:30-17:00"}, "geometry": {"type": "Point", "coordinates": [-81.7992295, 41.024732]}}, {"type": "Feature", "properties": {"name": "Ann's pasteries", "kind": "bakery", "chain": 0, "address": null, "website": null, "hours": null}, "geometry": {"type": "Point", "coordinates": [-81.7292896, 41.0260192]}}, {"type": "Feature", "properties": {"name": "Duma Meats", "kind": "butcher", "chain": 0, "address": "857 Randolph Road, Mogadore", "website": "https://www.dumameats.com/", "hours": "Mo-Fr 09:00-18:00; Sa 09:00-17:00"}, "geometry": {"type": "Point", "coordinates": [-81.3621163, 41.0468606]}}, {"type": "Feature", "properties": {"name": "Edwin's Butcher Shop", "kind": "butcher", "chain": 0, "address": "13024 Buckeye Road, Cleveland", "website": null, "hours": null}, "geometry": {"type": "Point", "coordinates": [-81.591269, 41.4796129]}}, {"type": "Feature", "properties": {"name": "Prime Meats Butcher", "kind": "butcher", "chain": 0, "address": "3935 East 131st Street, Cleveland", "website": null, "hours": null}, "geometry": {"type": "Point", "coordinates": [-81.5909627, 41.4516594]}}, {"type": "Feature", "properties": {"name": "Breads", "kind": "bakery", "chain": 0, "address": null, "website": null, "hours": null}, "geometry": {"type": "Point", "coordinates": [-81.6123542, 41.1296446]}}, {"type": "Feature", "properties": {"name": "Pandora's Cupcakes", "kind": "bakery", "chain": 0, "address": null, "website": null, "hours": null}, "geometry": {"type": "Point", "coordinates": [-81.4403046, 41.1048907]}}, {"type": "Feature", "properties": {"name": "Nothing Bundt Cakes", "kind": "patisserie", "chain": 1, "address": "4468 Belden Village Street Northwest, Canton", "website": null, "hours": null}, "geometry": {"type": "Point", "coordinates": [-81.4319868, 40.8559368]}}, {"type": "Feature", "properties": {"name": "Leavened", "kind": "bakery", "chain": 0, "address": "1633 Auburn Avenue, Cleveland", "website": "https://leavenedcle.com/", "hours": "Tu-Fr 06:30-16:00; Sa 08:00-16:00; Su 08:00-14:00"}, "geometry": {"type": "Point", "coordinates": [-81.6951859, 41.4758613]}}, {"type": "Feature", "properties": {"name": "Marta's & More Bakery Store", "kind": "bakery", "chain": 0, "address": "Broadway", "website": null, "hours": "Fr,Sa 09:00-14:00"}, "geometry": {"type": "Point", "coordinates": [-82.1736826, 41.4642989]}}, {"type": "Feature", "properties": {"name": "Pierogies of Cleveland", "kind": "bakery", "chain": 0, "address": "6869 Pearl Road, Middleburg Heights", "website": null, "hours": null}, "geometry": {"type": "Point", "coordinates": [-81.7878943, 41.3782869]}}, {"type": "Feature", "properties": {"name": "Nothing Bundt Cakes", "kind": "patisserie", "chain": 1, "address": "13949 Cedar Road, South Euclid", "website": null, "hours": null}, "geometry": {"type": "Point", "coordinates": [-81.5377794, 41.5024452]}}, {"type": "Feature", "properties": {"name": "222 Cold Brew Specialty Drinks", "kind": "bakery", "chain": 0, "address": "768 East 222nd Street, Euclid", "website": null, "hours": null}, "geometry": {"type": "Point", "coordinates": [-81.5270473, 41.5938642]}}, {"type": "Feature", "properties": {"name": "Poallotta's Pastries", "kind": "patisserie", "chain": 0, "address": null, "website": null, "hours": null}, "geometry": {"type": "Point", "coordinates": [-81.5077863, 41.1449567]}}, {"type": "Feature", "properties": {"name": "Omaha Steaks", "kind": "butcher", "chain": 1, "address": "21645-A Center Ridge Road, Rocky River", "website": null, "hours": null}, "geometry": {"type": "Point", "coordinates": [-81.8587609, 41.4581257]}}, {"type": "Feature", "properties": {"name": "Mama Jo Homestyle Pies", "kind": "bakery", "chain": 0, "address": "1969 Cooper Foster Park Road, Amherst", "website": null, "hours": null}, "geometry": {"type": "Point", "coordinates": [-82.2026361, 41.4162559]}}, {"type": "Feature", "properties": {"name": "Mazzulo's Market", "kind": "butcher", "chain": 0, "address": "302 Aurora Commons Circle, Aurora", "website": null, "hours": null}, "geometry": {"type": "Point", "coordinates": [-81.3570513, 41.3154532]}}, {"type": "Feature", "properties": {"name": "Great Lakes Smoked Meats", "kind": "butcher", "chain": 0, "address": "Broadway", "website": null, "hours": null}, "geometry": {"type": "Point", "coordinates": [-82.1666576, 41.4537459]}}, {"type": "Feature", "properties": {"name": "Farmers Market (seasonal)", "kind": "market", "chain": 0, "address": null, "website": null, "hours": null}, "geometry": {"type": "Point", "coordinates": [-81.6067511, 41.5048729]}}, {"type": "Feature", "properties": {"name": "Farmers Market (seasonal)", "kind": "market", "chain": 0, "address": null, "website": null, "hours": null}, "geometry": {"type": "Point", "coordinates": [-81.6185386, 41.5022893]}}, {"type": "Feature", "properties": {"name": "Aida's Bakery", "kind": "bakery", "chain": 0, "address": null, "website": null, "hours": null}, "geometry": {"type": "Point", "coordinates": [-81.3610707, 40.9750857]}}, {"type": "Feature", "properties": {"name": "Studio Bakery", "kind": "bakery", "chain": 0, "address": null, "website": null, "hours": null}, "geometry": {"type": "Point", "coordinates": [-81.4354328, 40.8448252]}}, {"type": "Feature", "properties": {"name": "Brimfield Bread Oven", "kind": "bakery", "chain": 0, "address": null, "website": null, "hours": null}, "geometry": {"type": "Point", "coordinates": [-81.3457545, 41.097209]}}, {"type": "Feature", "properties": {"name": "BJ's Bakery", "kind": "bakery", "chain": 0, "address": null, "website": null, "hours": null}, "geometry": {"type": "Point", "coordinates": [-81.4399992, 40.8821048]}}, {"type": "Feature", "properties": {"name": "Walmart Bakery", "kind": "bakery", "chain": 1, "address": null, "website": null, "hours": null}, "geometry": {"type": "Point", "coordinates": [-81.4337197, 40.8711515]}}, {"type": "Feature", "properties": {"name": "Giant Eagle Bakery", "kind": "bakery", "chain": 1, "address": null, "website": null, "hours": null}, "geometry": {"type": "Point", "coordinates": [-81.4354572, 40.874644]}}, {"type": "Feature", "properties": {"name": "Kelsey Elizabeth Cakes", "kind": "bakery", "chain": 0, "address": null, "website": null, "hours": null}, "geometry": {"type": "Point", "coordinates": [-81.8431994, 41.4786644]}}, {"type": "Feature", "properties": {"name": "Garrettsville Farmers Market", "kind": "market", "chain": 0, "address": "8111 Main Street, Garrettsville", "website": "https://www.garrettsvillefarmersmarket.com/", "hours": "Jun 03-Aug 26 Th 16:00-19:00"}, "geometry": {"type": "Point", "coordinates": [-81.0976316, 41.2850939]}}, {"type": "Feature", "properties": {"name": "Barb & Patty's Butcher Palace", "kind": "butcher", "chain": 0, "address": "9460 Mentor Avenue, Mentor", "website": null, "hours": null}, "geometry": {"type": "Point", "coordinates": [-81.3006158, 41.680177]}}, {"type": "Feature", "properties": {"name": "Rudy's Quality Meats", "kind": "butcher", "chain": 0, "address": "31728 Vine Street, Willowick", "website": null, "hours": null}, "geometry": {"type": "Point", "coordinates": [-81.4638242, 41.642141]}}, {"type": "Feature", "properties": {"name": "South Euclid Farmer's Market", "kind": "market", "chain": 0, "address": "4447 Mayfield Road, South Euclid", "website": null, "hours": null}, "geometry": {"type": "Point", "coordinates": [-81.5196349, 41.5203511]}}, {"type": "Feature", "properties": {"name": "Boris' Kosher Meat Market", "kind": "butcher", "chain": 0, "address": "14406 Cedar Road, Cleveland", "website": null, "hours": null}, "geometry": {"type": "Point", "coordinates": [-81.5211739, 41.5010683]}}, {"type": "Feature", "properties": {"name": "Buckeye Quality Meats", "kind": "butcher", "chain": 0, "address": "9356 State Route 14, Streetsboro", "website": "https://www.bqmfresh.com/", "hours": "Mo-Fr 09:00-18:00; Sa 09:00-17:00"}, "geometry": {"type": "Point", "coordinates": [-81.3490552, 41.240178]}}, {"type": "Feature", "properties": {"name": "Vincents Bakery", "kind": "bakery", "chain": 0, "address": "2038 Bailey Road, Cuyahoga Falls", "website": null, "hours": null}, "geometry": {"type": "Point", "coordinates": [-81.4676805, 41.1342443]}}, {"type": "Feature", "properties": {"name": "Expresso Bakery", "kind": "bakery", "chain": 0, "address": null, "website": null, "hours": "We-Su 05:00-14:00"}, "geometry": {"type": "Point", "coordinates": [-82.101207, 41.3629635]}}, {"type": "Feature", "properties": {"name": "Ohio City Provisions", "kind": "butcher", "chain": 0, "address": "3208 Lorain Ave", "website": null, "hours": "Mo-Su 10:00-19:00"}, "geometry": {"type": "Point", "coordinates": [-81.7092966, 41.4819739]}}, {"type": "Feature", "properties": {"name": "Sweet Mary's", "kind": "bakery", "chain": 0, "address": null, "website": null, "hours": null}, "geometry": {"type": "Point", "coordinates": [-81.516278, 41.0820108]}}, {"type": "Feature", "properties": {"name": "Bakery 57", "kind": "bakery", "chain": 0, "address": null, "website": null, "hours": null}, "geometry": {"type": "Point", "coordinates": [-81.7265766, 41.3304103]}}, {"type": "Feature", "properties": {"name": "Chez Michael French Market", "kind": "bakery", "chain": 0, "address": null, "website": null, "hours": "Tu-Sa 08:00-16:00; Su 09:00-14:30"}, "geometry": {"type": "Point", "coordinates": [-82.0334369, 41.4539436]}}, {"type": "Feature", "properties": {"name": "Nothing Bundt Cakes", "kind": "patisserie", "chain": 1, "address": "6990 Heisley Road, Mentor", "website": null, "hours": null}, "geometry": {"type": "Point", "coordinates": [-81.304132, 41.6807563]}}, {"type": "Feature", "properties": {"name": "Nothing Bundt Cakes", "kind": "patisserie", "chain": 1, "address": "4301 Kent Road, Stow", "website": null, "hours": null}, "geometry": {"type": "Point", "coordinates": [-81.4054604, 41.1572611]}}, {"type": "Feature", "properties": {"name": "Susan's Sugar & Spice", "kind": "bakery", "chain": 0, "address": null, "website": null, "hours": null}, "geometry": {"type": "Point", "coordinates": [-82.0208283, 41.4950585]}}, {"type": "Feature", "properties": {"name": "Blue Rooster Bakehouse", "kind": "bakery", "chain": 0, "address": null, "website": null, "hours": "Mo-Su 09:00-16:00"}, "geometry": {"type": "Point", "coordinates": [-82.2176472, 41.290607]}}, {"type": "Feature", "properties": {"name": "European's Best Bakery & More", "kind": "bakery", "chain": 0, "address": "19608 West 130th Street, Strongsville", "website": null, "hours": null}, "geometry": {"type": "Point", "coordinates": [-81.786212, 41.278728]}}, {"type": "Feature", "properties": {"name": "Marianne's Chocolates & Cheese", "kind": "fromagerie", "chain": 0, "address": "2241 State Route 45, Austinburg", "website": null, "hours": null}, "geometry": {"type": "Point", "coordinates": [-80.8554516, 41.7857122]}}, {"type": "Feature", "properties": {"name": "Insomnia Cookies", "kind": "patisserie", "chain": 1, "address": null, "website": null, "hours": null}, "geometry": {"type": "Point", "coordinates": [-81.5223331, 41.0759053]}}, {"type": "Feature", "properties": {"name": "Honey Bee", "kind": "bakery", "chain": 0, "address": null, "website": null, "hours": null}, "geometry": {"type": "Point", "coordinates": [-81.864263, 41.1384619]}}, {"type": "Feature", "properties": {"name": "Mad Batter Pastry Emporium", "kind": "patisserie", "chain": 0, "address": null, "website": null, "hours": null}, "geometry": {"type": "Point", "coordinates": [-82.2186059, 41.168467]}}, {"type": "Feature", "properties": {"name": "Crumbl Cookies", "kind": "patisserie", "chain": 1, "address": "1813 Nagel Road, Avon", "website": null, "hours": null}, "geometry": {"type": "Point", "coordinates": [-81.9877649, 41.4606393]}}, {"type": "Feature", "properties": {"name": "Cawley's Confections", "kind": "bakery", "chain": 0, "address": null, "website": null, "hours": "Tu-Fr 06:30-13:00; Sa 08:00-13:00"}, "geometry": {"type": "Point", "coordinates": [-82.120174, 41.2369883]}}, {"type": "Feature", "properties": {"name": "On The Rise", "kind": "bakery", "chain": 0, "address": null, "website": null, "hours": null}, "geometry": {"type": "Point", "coordinates": [-81.536832, 41.4663014]}}, {"type": "Feature", "properties": {"name": "Crumbl Cookies", "kind": "patisserie", "chain": 1, "address": null, "website": null, "hours": "Mo-Th 08:00-22:00; Fr,Sa 08:00-24:00"}, "geometry": {"type": "Point", "coordinates": [-81.7924433, 41.4856617]}}, {"type": "Feature", "properties": {"name": "Crumbl Cookies", "kind": "patisserie", "chain": 1, "address": "36001 Euclid Avenue, Willoughby", "website": "https://crumblcookies.com/ohwilloughby", "hours": "Su off; Mo-Th 08:00-22:00; Fr-Sa 08:00-24:00"}, "geometry": {"type": "Point", "coordinates": [-81.4323203, 41.6270639]}}, {"type": "Feature", "properties": {"name": "Slices Fabulous Pastries", "kind": "patisserie", "chain": 0, "address": "4190 Pearl Road, Cleveland", "website": "http://www.slicespastries.com", "hours": "Tu-Sa 07:00-14:00"}, "geometry": {"type": "Point", "coordinates": [-81.7052724, 41.441523]}}, {"type": "Feature", "properties": {"name": "Michael's Bakeshop", "kind": "bakery", "chain": 0, "address": "4145 Erie Street, Willoughby", "website": "https://www.michaelsbakeshop.com", "hours": "Su 08:00-14:00; Mo-We off; Th-Sa 08:00-14:00"}, "geometry": {"type": "Point", "coordinates": [-81.4065443, 41.6398266]}}, {"type": "Feature", "properties": {"name": "Hever's Family Meats", "kind": "butcher", "chain": 0, "address": null, "website": null, "hours": null}, "geometry": {"type": "Point", "coordinates": [-81.3895005, 40.8355586]}}, {"type": "Feature", "properties": {"name": "Crumbl Cookies", "kind": "patisserie", "chain": 1, "address": "7323 Northcliff Avenue, Brooklyn", "website": null, "hours": null}, "geometry": {"type": "Point", "coordinates": [-81.7353536, 41.4234835]}}, {"type": "Feature", "properties": {"name": "Grandpa's Cheesebarn", "kind": "fromagerie", "chain": 0, "address": "3916 South Cleveland Massillon Road, Norton", "website": "https://www.grandpascheesebarn.com/home-old", "hours": "Mo-Sa 09:00-18:00, Su 11:00-16:00"}, "geometry": {"type": "Point", "coordinates": [-81.6385526, 41.0320297]}}, {"type": "Feature", "properties": {"name": "Tiffany's Bakery", "kind": "bakery", "chain": 0, "address": "620 Ridgewood Crossing, Akron", "website": "https://tiffanysbakeryakron.com/", "hours": "Mo-Sa 07:00-19:00, Su 09:00-17:00"}, "geometry": {"type": "Point", "coordinates": [-81.6127997, 41.1121331]}}, {"type": "Feature", "properties": {"name": "The Red Velvet Cake", "kind": "bakery", "chain": 0, "address": "21350 Libby Road, Maple Heights", "website": null, "hours": null}, "geometry": {"type": "Point", "coordinates": [-81.5315021, 41.4159344]}}, {"type": "Feature", "properties": {"name": "Baraona\u2019s Bakery", "kind": "bakery", "chain": 0, "address": null, "website": null, "hours": null}, "geometry": {"type": "Point", "coordinates": [-81.5698292, 41.416835]}}, {"type": "Feature", "properties": {"name": "Nadine\u2019s Candy & Cupcake Supply", "kind": "patisserie", "chain": 0, "address": null, "website": null, "hours": null}, "geometry": {"type": "Point", "coordinates": [-81.5836478, 41.4172603]}}, {"type": "Feature", "properties": {"name": "Evergreen", "kind": "bakery", "chain": 0, "address": "69 North Main Street", "website": null, "hours": "Su 08:00-14:00; Tu-Sa 08:00-14:00; Mo off"}, "geometry": {"type": "Point", "coordinates": [-81.3923829, 41.4315165]}}, {"type": "Feature", "properties": {"name": "Great Harvest Bread Co", "kind": "bakery", "chain": 0, "address": "9440 Mentor Avenue, Mentor", "website": "http://greatharvestmentor.com", "hours": "Su off; Mo-Fr 07:00-18:00; Sa 07:00-16:00"}, "geometry": {"type": "Point", "coordinates": [-81.301088, 41.6800203]}}, {"type": "Feature", "properties": {"name": "Crumbl Cookies", "kind": "patisserie", "chain": 1, "address": "7420 Oak Point Road, Lorain", "website": null, "hours": null}, "geometry": {"type": "Point", "coordinates": [-82.2393673, 41.4139872]}}, {"type": "Feature", "properties": {"name": "Crumbl Cookies", "kind": "patisserie", "chain": 1, "address": "24345 Chagrin Boulevard, Beachwood", "website": "https://crumblcookies.com/ohbeachwood", "hours": null}, "geometry": {"type": "Point", "coordinates": [-81.5063225, 41.4657757]}}, {"type": "Feature", "properties": {"name": "Donut Land", "kind": "bakery", "chain": 0, "address": "1321 Pearl Road", "website": "https://www.donutlandohio.com", "hours": "Sa 00:00-24:00; Su 04:30-16:00; Tu-Th 04:30-22:00; Fr 04:30-00:00"}, "geometry": {"type": "Point", "coordinates": [-81.8406369, 41.2394818]}}, {"type": "Feature", "properties": {"name": "Nothing Bundt Cakes", "kind": "patisserie", "chain": 1, "address": "7574 Oak Point Road, Amherst", "website": null, "hours": null}, "geometry": {"type": "Point", "coordinates": [-82.2394316, 41.4133336]}}, {"type": "Feature", "properties": {"name": "The Farmer's Rail", "kind": "butcher", "chain": 0, "address": null, "website": null, "hours": null}, "geometry": {"type": "Point", "coordinates": [-81.4826175, 41.1368631]}}, {"type": "Feature", "properties": {"name": "Sweeter Than Honeycomb", "kind": "bakery", "chain": 0, "address": "9328 Chillicothe Road, Kirtland", "website": null, "hours": null}, "geometry": {"type": "Point", "coordinates": [-81.3574724, 41.6166753]}}, {"type": "Feature", "properties": {"name": "La Villas BAkery", "kind": "bakery", "chain": 0, "address": null, "website": null, "hours": null}, "geometry": {"type": "Point", "coordinates": [-81.7134171, 41.4666374]}}, {"type": "Feature", "properties": {"name": "Algo Diferente", "kind": "bakery", "chain": 0, "address": null, "website": null, "hours": null}, "geometry": {"type": "Point", "coordinates": [-81.7005588, 41.4689341]}}, {"type": "Feature", "properties": {"name": "Panitos Panaderia", "kind": "bakery", "chain": 0, "address": null, "website": null, "hours": null}, "geometry": {"type": "Point", "coordinates": [-81.7005588, 41.4687991]}}, {"type": "Feature", "properties": {"name": "Great Scott's Bakery and Coffee", "kind": "bakery", "chain": 0, "address": "5286 Center Road, Brunswick", "website": null, "hours": null}, "geometry": {"type": "Point", "coordinates": [-81.8763025, 41.2365041]}}, {"type": "Feature", "properties": {"name": "Taste of Transylvania", "kind": "butcher", "chain": 0, "address": "6275 Pearl Road, Parma Heights", "website": null, "hours": null}, "geometry": {"type": "Point", "coordinates": [-81.7609949, 41.390458]}}, {"type": "Feature", "properties": {"name": "Vegan Donut Co", "kind": "bakery", "chain": 0, "address": null, "website": null, "hours": null}, "geometry": {"type": "Point", "coordinates": [-81.8000508, 41.4849189]}}, {"type": "Feature", "properties": {"name": "Jubilee Donuts", "kind": "bakery", "chain": 0, "address": "2126 South Main Street", "website": "https://jubileedonuts.com/", "hours": "Tu-Sa 05:00-14:00"}, "geometry": {"type": "Point", "coordinates": [-81.5274446, 41.0290128]}}, {"type": "Feature", "properties": {"name": "Showcase Meats", "kind": "butcher", "chain": 0, "address": "2355 Manchester Road", "website": "https://showcasemeat.com/", "hours": "Mo-Su 11:00-19:00"}, "geometry": {"type": "Point", "coordinates": [-81.5449178, 41.0346367]}}, {"type": "Feature", "properties": {"name": "Paris Baguette", "kind": "bakery", "chain": 1, "address": "35705 Chester Road, Avon", "website": null, "hours": null}, "geometry": {"type": "Point", "coordinates": [-82.0142389, 41.4670315]}}, {"type": "Feature", "properties": {"name": "Lazy L Ranch Meats", "kind": "butcher", "chain": 0, "address": null, "website": null, "hours": null}, "geometry": {"type": "Point", "coordinates": [-81.6051244, 40.9468876]}}, {"type": "Feature", "properties": {"name": "Balkan Bakery", "kind": "bakery", "chain": 0, "address": null, "website": null, "hours": null}, "geometry": {"type": "Point", "coordinates": [-81.3926628, 41.0520533]}}, {"type": "Feature", "properties": {"name": "Gually's Bakery", "kind": "bakery", "chain": 0, "address": null, "website": null, "hours": null}, "geometry": {"type": "Point", "coordinates": [-81.7304224, 41.4588004]}}, {"type": "Feature", "properties": {"name": "Crumbl Cookies", "kind": "patisserie", "chain": 1, "address": null, "website": null, "hours": null}, "geometry": {"type": "Point", "coordinates": [-81.631947, 41.1353705]}}, {"type": "Feature", "properties": {"name": "TOUS les JOURS Bakery & Cafe", "kind": "bakery", "chain": 0, "address": "5268 Mayfield Road", "website": "https://tljus.com/", "hours": "Mo-Su 08:00-20:00"}, "geometry": {"type": "Point", "coordinates": [-81.4899168, 41.5196489]}}, {"type": "Feature", "properties": {"name": "Oasis Bakery", "kind": "bakery", "chain": 0, "address": "13615 Detroit Avenue, Lakewood", "website": null, "hours": null}, "geometry": {"type": "Point", "coordinates": [-81.7870429, 41.4851131]}}, {"type": "Feature", "properties": {"name": "Reeves Cake Shop", "kind": "bakery", "chain": 0, "address": "2770 Cory Avenue", "website": "https://reevescakeshop.com/", "hours": "Tu-Fr 10:00-17:00; Sa 10:00-15:00"}, "geometry": {"type": "Point", "coordinates": [-81.5669269, 41.0279762]}}, {"type": "Feature", "properties": {"name": "Smoosh Cookies", "kind": "patisserie", "chain": 0, "address": "2101 Hall of Fame Way, Canton", "website": null, "hours": null}, "geometry": {"type": "Point", "coordinates": [-81.3986915, 40.822364]}}, {"type": "Feature", "properties": {"name": "Top Tier Pastry", "kind": "patisserie", "chain": 0, "address": null, "website": null, "hours": null}, "geometry": {"type": "Point", "coordinates": [-81.2240299, 41.2817906]}}, {"type": "Feature", "properties": {"name": "Cocky's Bagels", "kind": "bakery", "chain": 0, "address": null, "website": null, "hours": null}, "geometry": {"type": "Point", "coordinates": [-81.5397561, 41.5009885]}}, {"type": "Feature", "properties": {"name": "Rainbow Bakery & Market", "kind": "bakery", "chain": 0, "address": null, "website": null, "hours": null}, "geometry": {"type": "Point", "coordinates": [-82.1365715, 41.4443532]}}, {"type": "Feature", "properties": {"name": "Crumbl Cookies", "kind": "patisserie", "chain": 1, "address": null, "website": null, "hours": null}, "geometry": {"type": "Point", "coordinates": [-81.407121, 41.1559225]}}, {"type": "Feature", "properties": {"name": "Mochi Nut", "kind": "bakery", "chain": 0, "address": null, "website": null, "hours": null}, "geometry": {"type": "Point", "coordinates": [-81.8356856, 41.3083665]}}, {"type": "Feature", "properties": {"name": "West Side Market", "kind": "market", "chain": 0, "address": "1979 West 25th Street, Cleveland", "website": "https://www.westsidemarket.org/", "hours": "Mo,We,Fr,Sa 08:00-17:00; Su 10:00-16:00"}, "geometry": {"type": "Point", "coordinates": [-81.7031838, 41.4847765]}}, {"type": "Feature", "properties": {"name": "Produce Arcade", "kind": "market", "chain": 0, "address": null, "website": null, "hours": null}, "geometry": {"type": "Point", "coordinates": [-81.702782, 41.4850272]}}, {"type": "Feature", "properties": {"name": "Presti's Bakery", "kind": "bakery", "chain": 0, "address": null, "website": null, "hours": null}, "geometry": {"type": "Point", "coordinates": [-81.5982125, 41.5089148]}}, {"type": "Feature", "properties": {"name": "Coit Road Farmers Market", "kind": "market", "chain": 0, "address": null, "website": null, "hours": null}, "geometry": {"type": "Point", "coordinates": [-81.5768664, 41.5449425]}}, {"type": "Feature", "properties": {"name": "Sophie La Gourmande", "kind": "bakery", "chain": 0, "address": "2275 Lee Road, Cleveland Heights", "website": null, "hours": null}, "geometry": {"type": "Point", "coordinates": [-81.5647622, 41.4976663]}}, {"type": "Feature", "properties": {"name": "M & W Meats", "kind": "butcher", "chain": 0, "address": "4391 State Road", "website": null, "hours": null}, "geometry": {"type": "Point", "coordinates": [-81.7065037, 41.4346965]}}, {"type": "Feature", "properties": {"name": "Halls Brothers Meats", "kind": "butcher", "chain": 0, "address": "27040 Cook Road, Olmsted Township", "website": null, "hours": null}, "geometry": {"type": "Point", "coordinates": [-81.9391098, 41.3837029]}}, {"type": "Feature", "properties": {"name": "State Meats", "kind": "butcher", "chain": 0, "address": null, "website": null, "hours": null}, "geometry": {"type": "Point", "coordinates": [-81.7106148, 41.4151078]}}, {"type": "Feature", "properties": {"name": "M & M Donut Shop", "kind": "bakery", "chain": 0, "address": null, "website": null, "hours": null}, "geometry": {"type": "Point", "coordinates": [-81.6390813, 41.4469591]}}, {"type": "Feature", "properties": {"name": "Prime Meats", "kind": "butcher", "chain": 0, "address": "7710 Superior Avenue, Cleveland", "website": null, "hours": null}, "geometry": {"type": "Point", "coordinates": [-81.63486, 41.519283]}}, {"type": "Feature", "properties": {"name": "Van Aken Market Hall", "kind": "market", "chain": 0, "address": null, "website": null, "hours": null}, "geometry": {"type": "Point", "coordinates": [-81.5370694, 41.466304]}}, {"type": "Feature", "properties": {"name": "Colozzo's", "kind": "bakery", "chain": 0, "address": null, "website": null, "hours": null}, "geometry": {"type": "Point", "coordinates": [-81.7348289, 41.4028485]}}, {"type": "Feature", "properties": {"name": "On The Rise", "kind": "bakery", "chain": 0, "address": "3471 Fairmount Blvd", "website": "https://ontheriseartisanbreads.com/", "hours": "Tu-Fr 08:00-16:30, Sa 08:00-15:30, Su 08:00-14:00, Mo off"}, "geometry": {"type": "Point", "coordinates": [-81.5551468, 41.4868465]}}, {"type": "Feature", "properties": {"name": "Gallucci's Italian Foods", "kind": "market", "chain": 0, "address": null, "website": null, "hours": null}, "geometry": {"type": "Point", "coordinates": [-81.6440774, 41.5036697]}}, {"type": "Feature", "properties": {"name": "The Daily Cafe & Bakery", "kind": "bakery", "chain": 0, "address": "5751 Smith Road, Brook Park", "website": null, "hours": null}, "geometry": {"type": "Point", "coordinates": [-81.8033015, 41.4064365]}}, {"type": "Feature", "properties": {"name": "Black Bird Bakery", "kind": "bakery", "chain": 0, "address": "1391 Sloane Avenue", "website": null, "hours": "Mo-Su 07:00-17:00"}, "geometry": {"type": "Point", "coordinates": [-81.8293976, 41.4824549]}}, {"type": "Feature", "properties": {"name": "LVIV International Food Store", "kind": "market", "chain": 0, "address": null, "website": null, "hours": null}, "geometry": {"type": "Point", "coordinates": [-81.7102735, 41.4073379]}}, {"type": "Feature", "properties": {"name": "Moussey Moussey", "kind": "bakery", "chain": 0, "address": null, "website": null, "hours": null}, "geometry": {"type": "Point", "coordinates": [-81.692749, 41.4121759]}}, {"type": "Feature", "properties": {"name": "Rudy's Strudel & Bakery", "kind": "bakery", "chain": 0, "address": "5580 Ridge Road, Parma", "website": "https://rudysstrudel.com/", "hours": "Tu,Th 09:00-17:00; We 09:00-15:00; Fr 09:00-18:00; Sa 08:00-17:00"}, "geometry": {"type": "Point", "coordinates": [-81.7350852, 41.4100565]}}, {"type": "Feature", "properties": {"name": "Gibbs Butcher Block", "kind": "butcher", "chain": 0, "address": "9858 East River Road North, Columbia Station", "website": null, "hours": null}, "geometry": {"type": "Point", "coordinates": [-81.902819, 41.3503079]}}, {"type": "Feature", "properties": {"name": "Susan's Sugar & Spice", "kind": "bakery", "chain": 0, "address": null, "website": null, "hours": null}, "geometry": {"type": "Point", "coordinates": [-81.9610378, 41.3961886]}}, {"type": "Feature", "properties": {"name": "Beckers Donuts & Bakery", "kind": "bakery", "chain": 0, "address": "29603 Lorain Road, North Olmsted", "website": null, "hours": null}, "geometry": {"type": "Point", "coordinates": [-81.9479431, 41.4042365]}}, {"type": "Feature", "properties": {"name": "Joe Maxx Coffee Shop", "kind": "patisserie", "chain": 0, "address": null, "website": null, "hours": null}, "geometry": {"type": "Point", "coordinates": [-81.6257065, 41.3202274]}}, {"type": "Feature", "properties": {"name": "R&K Sausage", "kind": "butcher", "chain": 0, "address": null, "website": null, "hours": null}, "geometry": {"type": "Point", "coordinates": [-81.5702364, 41.570821]}}, {"type": "Feature", "properties": {"name": "Kocian Meats", "kind": "butcher", "chain": 0, "address": "4058 Saint Clair Avenue, Cleveland", "website": null, "hours": null}, "geometry": {"type": "Point", "coordinates": [-81.6630026, 41.5164226]}}, {"type": "Feature", "properties": {"name": "Wild Flour Bakery", "kind": "bakery", "chain": 0, "address": null, "website": null, "hours": null}, "geometry": {"type": "Point", "coordinates": [-81.8441654, 41.4834825]}}, {"type": "Feature", "properties": {"name": "AC Meat Shop", "kind": "butcher", "chain": 0, "address": "5543 State Road, Parma", "website": null, "hours": null}, "geometry": {"type": "Point", "coordinates": [-81.71003, 41.410995]}}, {"type": "Feature", "properties": {"name": "Ideal Bakery", "kind": "bakery", "chain": 0, "address": "1320 Main Street, Lakemore", "website": "https://idealbakeryohio.com/", "hours": null}, "geometry": {"type": "Point", "coordinates": [-81.4294495, 41.0233975]}}, {"type": "Feature", "properties": {"name": "Canal Fulton Provisions", "kind": "butcher", "chain": 0, "address": null, "website": null, "hours": null}, "geometry": {"type": "Point", "coordinates": [-81.5768492, 40.8834028]}}, {"type": "Feature", "properties": {"name": "Grandpa's Cheesebarn", "kind": "fromagerie", "chain": 0, "address": null, "website": null, "hours": null}, "geometry": {"type": "Point", "coordinates": [-81.6175735, 41.1340162]}}, {"type": "Feature", "properties": {"name": "Turk Brothers Custom Meats, Inc.", "kind": "butcher", "chain": 0, "address": "1903 Orange Road, Ashland", "website": "https://www.turkbrothersmeats.com/", "hours": "Mo-Fr 07:00-17:00, Sa 07:00-12:00"}, "geometry": {"type": "Point", "coordinates": [-82.3015106, 40.8876006]}}, {"type": "Feature", "properties": {"name": "Pressler Meats", "kind": "butcher", "chain": 0, "address": null, "website": null, "hours": null}, "geometry": {"type": "Point", "coordinates": [-81.4450008, 40.9944077]}}, {"type": "Feature", "properties": {"name": "Marshallville Packing Co.", "kind": "butcher", "chain": 0, "address": null, "website": null, "hours": "Tu-Fr 09:00-18:00; Sa 09:00-17:00"}, "geometry": {"type": "Point", "coordinates": [-81.728626, 40.9010728]}}, {"type": "Feature", "properties": {"name": "Sweeter than Honeycom", "kind": "bakery", "chain": 0, "address": "9329 Chillicothe Road, Kirtland", "website": null, "hours": null}, "geometry": {"type": "Point", "coordinates": [-81.3574554, 41.6167384]}}]}